{
  "type": "FeatureCollection",
  "features": [
    {
      "type": "Feature",
      "properties": {
        "norad_id": 34056,
        "name": "COSMOS 2251 DEB",
        "group": "cosmos-2251-debris",
        "lat": 33.62318467339219,
        "lon": 85.3297207075742,
        "alt_km": 814.6616264403165,
        "timestamp": "2025-12-13T20:38:51.401371+00:00",
        "meta_object_name": "COSMOS 2251 DEB",
        "meta_object_id": "1993-036JT",
        "meta_epoch": "2025-12-13T05:24:09.620640",
        "meta_mean_motion": 14.20561115,
        "meta_eccentricity": 0.01241376,
        "meta_inclination": 74.0595,
        "meta_ra_of_asc_node": 75.5091,
        "meta_arg_of_pericenter": 123.2132,
        "meta_mean_anomaly": 266.287,
        "meta_ephemeris_type": 0,
        "meta_classification_type": "U",
        "meta_norad_cat_id": 34056,
        "meta_element_set_no": 999,
        "meta_rev_at_epoch": 86418,
        "meta_bstar": 0.0015599211,
        "meta_mean_motion_dot": 3.602e-05,
        "meta_mean_motion_ddot": 0,
        "tle_line1": "1 34056U 93036JT  25347.22511135  .00003602  00000+0  15599-2 0  9991",
        "tle_line2": "2 34056  74.0595  75.5091 0124137 123.2132 266.2870 14.20561115864183"
      },
      "geometry": {
        "type": "Point",
        "coordinates": [
          85.3297207075742,
          33.62318467339219
        ]
      }
    },
    {
      "type": "Feature",
      "properties": {
        "norad_id": 34058,
        "name": "COSMOS 2251 DEB",
        "group": "cosmos-2251-debris",
        "lat": -63.3479326601632,
        "lon": 141.2494151682685,
        "alt_km": 1190.2547151923663,
        "timestamp": "2025-12-13T20:38:51.401404+00:00",
        "meta_object_name": "COSMOS 2251 DEB",
        "meta_object_id": "1993-036JV",
        "meta_epoch": "2025-12-13T07:42:37.638144",
        "meta_mean_motion": 13.56077428,
        "meta_eccentricity": 0.0377915,
        "meta_inclination": 73.9314,
        "meta_ra_of_asc_node": 177.1699,
        "meta_arg_of_pericenter": 172.2975,
        "meta_mean_anomaly": 4.9052,
        "meta_ephemeris_type": 0,
        "meta_classification_type": "U",
        "meta_norad_cat_id": 34058,
        "meta_element_set_no": 999,
        "meta_rev_at_epoch": 83150,
        "meta_bstar": 0.00099808143,
        "meta_mean_motion_dot": 1.087e-05,
        "meta_mean_motion_ddot": 0,
        "tle_line1": "1 34058U 93036JV  25347.32126896  .00001087  00000+0  99808-3 0  9991",
        "tle_line2": "2 34058  73.9314 177.1699 0377915 172.2975   4.9052 13.56077428831504"
      },
      "geometry": {
        "type": "Point",
        "coordinates": [
          141.2494151682685,
          -63.3479326601632
        ]
      }
    },
    {
      "type": "Feature",
      "properties": {
        "norad_id": 34059,
        "name": "COSMOS 2251 DEB",
        "group": "cosmos-2251-debris",
        "lat": 1.1692482863719977,
        "lon": 3.828503271223234,
        "alt_km": 716.7432151023831,
        "timestamp": "2025-12-13T20:38:51.401418+00:00",
        "meta_object_name": "COSMOS 2251 DEB",
        "meta_object_id": "1993-036JW",
        "meta_epoch": "2025-12-13T00:34:57.302112",
        "meta_mean_motion": 14.52950208,
        "meta_eccentricity": 0.00186285,
        "meta_inclination": 74.0377,
        "meta_ra_of_asc_node": 185.7398,
        "meta_arg_of_pericenter": 262.9992,
        "meta_mean_anomaly": 224.6324,
        "meta_ephemeris_type": 0,
        "meta_classification_type": "U",
        "meta_norad_cat_id": 34059,
        "meta_element_set_no": 999,
        "meta_rev_at_epoch": 88463,
        "meta_bstar": 0.0011157878,
        "meta_mean_motion_dot": 4.585e-05,
        "meta_mean_motion_ddot": 0,
        "tle_line1": "1 34059U 93036JW  25347.02427433  .00004585  00000+0  11158-2 0  9997",
        "tle_line2": "2 34059  74.0377 185.7398 0018628 262.9992 224.6324 14.52950208884634"
      },
      "geometry": {
        "type": "Point",
        "coordinates": [
          3.828503271223234,
          1.1692482863719977
        ]
      }
    },
    {
      "type": "Feature",
      "properties": {
        "norad_id": 34061,
        "name": "COSMOS 2251 DEB",
        "group": "cosmos-2251-debris",
        "lat": 60.34263036594671,
        "lon": 51.14535717402074,
        "alt_km": 761.8666415793305,
        "timestamp": "2025-12-13T20:38:51.401429+00:00",
        "meta_object_name": "COSMOS 2251 DEB",
        "meta_object_id": "1993-036JY",
        "meta_epoch": "2025-12-13T05:51:55.639872",
        "meta_mean_motion": 14.40359936,
        "meta_eccentricity": 0.00205649,
        "meta_inclination": 74.0393,
        "meta_ra_of_asc_node": 262.4563,
        "meta_arg_of_pericenter": 339.248,
        "meta_mean_anomaly": 183.4171,
        "meta_ephemeris_type": 0,
        "meta_classification_type": "U",
        "meta_norad_cat_id": 34061,
        "meta_element_set_no": 999,
        "meta_rev_at_epoch": 88187,
        "meta_bstar": 0.00054710821,
        "meta_mean_motion_dot": 1.714e-05,
        "meta_mean_motion_ddot": 0,
        "tle_line1": "1 34061U 93036JY  25347.24439398  .00001714  00000+0  54711-3 0  9991",
        "tle_line2": "2 34061  74.0393 262.4563 0020564 339.2480 183.4171 14.40359936881877"
      },
      "geometry": {
        "type": "Point",
        "coordinates": [
          51.14535717402074,
          60.34263036594671
        ]
      }
    },
    {
      "type": "Feature",
      "properties": {
        "norad_id": 34062,
        "name": "COSMOS 2251 DEB",
        "group": "cosmos-2251-debris",
        "lat": 28.645678138755144,
        "lon": 144.83411738102112,
        "alt_km": 683.8275035179586,
        "timestamp": "2025-12-13T20:38:51.401440+00:00",
        "meta_object_name": "COSMOS 2251 DEB",
        "meta_object_id": "1993-036JZ",
        "meta_epoch": "2025-12-12T12:19:02.729856",
        "meta_mean_motion": 14.78653327,
        "meta_eccentricity": 0.00746851,
        "meta_inclination": 74.0279,
        "meta_ra_of_asc_node": 138.4814,
        "meta_arg_of_pericenter": 217.6273,
        "meta_mean_anomaly": 204.3371,
        "meta_ephemeris_type": 0,
        "meta_classification_type": "U",
        "meta_norad_cat_id": 34062,
        "meta_element_set_no": 999,
        "meta_rev_at_epoch": 88592,
        "meta_bstar": 0.0039978404,
        "meta_mean_motion_dot": 0.00030804,
        "meta_mean_motion_ddot": 0,
        "tle_line1": "1 34062U 93036JZ  25346.51322604  .00030804  00000+0  39978-2 0  9991",
        "tle_line2": "2 34062  74.0279 138.4814 0074685 217.6273 204.3371 14.78653327885921"
      },
      "geometry": {
        "type": "Point",
        "coordinates": [
          144.83411738102112,
          28.645678138755144
        ]
      }
    },
    {
      "type": "Feature",
      "properties": {
        "norad_id": 34064,
        "name": "COSMOS 2251 DEB",
        "group": "cosmos-2251-debris",
        "lat": 72.61837806333409,
        "lon": 22.63240390119861,
        "alt_km": 751.7535899042887,
        "timestamp": "2025-12-13T20:38:51.401450+00:00",
        "meta_object_name": "COSMOS 2251 DEB",
        "meta_object_id": "1993-036KB",
        "meta_epoch": "2025-12-13T05:56:17.373120",
        "meta_mean_motion": 14.42342364,
        "meta_eccentricity": 0.00221371,
        "meta_inclination": 74.0327,
        "meta_ra_of_asc_node": 269.926,
        "meta_arg_of_pericenter": 336.2661,
        "meta_mean_anomaly": 179.3148,
        "meta_ephemeris_type": 0,
        "meta_classification_type": "U",
        "meta_norad_cat_id": 34064,
        "meta_element_set_no": 999,
        "meta_rev_at_epoch": 88149,
        "meta_bstar": 0.00090137307,
        "meta_mean_motion_dot": 2.961e-05,
        "meta_mean_motion_ddot": 0,
        "tle_line1": "1 34064U 93036KB  25347.24742330  .00002961  00000+0  90137-3 0  9994",
        "tle_line2": "2 34064  74.0327 269.9260 0022137 336.2661 179.3148 14.42342364881494"
      },
      "geometry": {
        "type": "Point",
        "coordinates": [
          22.63240390119861,
          72.61837806333409
        ]
      }
    },
    {
      "type": "Feature",
      "properties": {
        "norad_id": 34065,
        "name": "COSMOS 2251 DEB",
        "group": "cosmos-2251-debris",
        "lat": 73.77135128737642,
        "lon": -3.5092628137277955,
        "alt_km": 759.4188552214127,
        "timestamp": "2025-12-13T20:38:51.401461+00:00",
        "meta_object_name": "COSMOS 2251 DEB",
        "meta_object_id": "1993-036KC",
        "meta_epoch": "2025-12-13T05:58:28.569792",
        "meta_mean_motion": 14.38063835,
        "meta_eccentricity": 0.0016406,
        "meta_inclination": 74.0357,
        "meta_ra_of_asc_node": 257.1829,
        "meta_arg_of_pericenter": 354.6175,
        "meta_mean_anomaly": 174.2585,
        "meta_ephemeris_type": 0,
        "meta_classification_type": "U",
        "meta_norad_cat_id": 34065,
        "meta_element_set_no": 999,
        "meta_rev_at_epoch": 88212,
        "meta_bstar": 0.0002696783,
        "meta_mean_motion_dot": 7.92e-06,
        "meta_mean_motion_ddot": 0,
        "tle_line1": "1 34065U 93036KC  25347.24894178  .00000792  00000+0  26968-3 0  9994",
        "tle_line2": "2 34065  74.0357 257.1829 0016406 354.6175 174.2585 14.38063835882122"
      },
      "geometry": {
        "type": "Point",
        "coordinates": [
          -3.5092628137277955,
          73.77135128737642
        ]
      }
    }
  ]
}